COSMOS 2425 (716)       
1 29670U 06062A   17345.72401943 -.00000048  00000-0  10000-3 0  9995
2 29670  65.3740 298.8703 0022032 339.7366 275.4505  2.13104994 85312
